OBJECT_NAME,OBJECT_ID,EPOCH,MEAN_MOTION,ECCENTRICITY,INCLINATION,RA_OF_ASC_NODE,ARG_OF_PERICENTER,MEAN_ANOMALY,EPHEMERIS_TYPE,CLASSIFICATION_TYPE,NORAD_CAT_ID,ELEMENT_SET_NO,REV_AT_EPOCH,BSTAR,MEAN_MOTION_DOT,MEAN_MOTION_DDOT
IRIDIUM 154,2018-061F,2026-06-27T21:44:54.465216,14.34217813,.00021807,86.3952,52.3245,89.0729,271.0717,0,U,43574,999,41494,.16866748E-4,.67E-6,0
IRIDIUM 163,2018-061G,2026-06-27T21:17:30.490080,14.34217935,.00022066,86.3951,52.2475,83.7526,276.3921,0,U,43575,999,41491,.29625305E-4,.103E-5,0
IRIDIUM 156,2018-061H,2026-06-27T22:21:26.832384,14.34219221,.00020182,86.3952,52.2362,86.0513,274.0914,0,U,43576,999,41491,.74557881E-4,.229E-5,0
IRIDIUM 164,2018-061J,2026-06-27T21:54:02.471904,14.34217923,.00022263,86.3953,52.2847,90.0230,270.1221,0,U,43577,999,41495,.13595944E-4,.58E-6,0
IRIDIUM 159,2018-061K,2026-06-27T21:08:22.510176,14.34217626,.00022316,86.3950,52.2345,84.1564,275.9886,0,U,43578,999,41491,.6732033E-5,.39E-6,0
IRIDIUM 180,2019-002A,2026-06-27T21:07:38.948160,14.34217698,.00022376,86.3974,349.1265,89.3206,270.8247,0,U,43922,999,39052,.6643325E-5,.38E-6,0
IRIDIUM 176,2019-002B,2026-06-27T21:32:54.199392,14.72227737,.00024114,86.6094,349.0610,88.5777,271.5716,0,U,43923,999,40082,.11422903E-3,.744E-5,0
IRIDIUM 168,2019-002C,2026-06-27T22:38:58.565760,14.34216907,.00022336,86.3976,349.1774,90.3580,269.7872,0,U,43924,999,39051,.28231077E-4,.99E-6,0
IRIDIUM 173,2019-002D,2026-06-27T20:40:14.929824,14.34217872,.00021568,86.3973,349.1004,88.8493,271.2950,0,U,43925,999,39048,.7981474E-5,.42E-6,0
IRIDIUM 169,2019-002E,2026-06-27T19:47:35.717280,14.38607982,.0001661,86.4219,20.7450,83.7990,276.3398,0,U,43926,999,39175,.76904983E-4,.255E-5,0
IRIDIUM 172,2019-002F,2026-06-27T22:11:34.864512,14.34216913,.00021258,86.3971,349.0819,89.5188,270.6251,0,U,43927,999,39050,-.989858E-6,.17E-6,0
IRIDIUM 175,2019-002G,2026-06-27T19:28:49.915776,14.43618331,.00038352,86.4518,286.0798,151.5588,208.5823,0,U,43928,999,40051,.83909294E-4,.304E-5,0
IRIDIUM 171,2019-002H,2026-06-27T20:03:42.906528,14.34217551,.00019919,86.3981,349.4265,94.0218,266.1205,0,U,43929,999,39048,-.3000362E-5,.11E-6,0
IRIDIUM 170,2019-002J,2026-06-27T21:41:47.855904,14.72228260,.0002478,86.6094,349.0608,85.7995,274.3505,0,U,43930,999,40083,.11326912E-3,.738E-5,0
IRIDIUM 167,2019-002K,2026-06-27T21:35:02.902560,14.34217401,.00018895,86.3972,349.1151,97.6971,262.4439,0,U,43931,999,39049,-.9305738E-5,-.6E-7,0
IRIDIUM 181,2023-068S,2026-06-27T22:07:27.142752,14.43311581,.00024351,86.4489,52.3028,87.3078,272.8401,0,U,56726,999,16398,.77907626E-4,.282E-5,0
IRIDIUM 177,2023-068T,2026-06-27T20:50:51.757440,14.80036262,.00023406,86.1971,323.7179,90.3326,269.8163,0,U,56727,999,16794,.93550667E-4,.734E-5,0
IRIDIUM 174,2023-068U,2026-06-27T21:24:01.140768,14.72235929,.000237,86.6102,349.2143,80.4714,279.6771,0,U,56728,999,16759,.11949261E-3,.778E-5,0
IRIDIUM 178,2023-068V,2026-06-27T14:05:31.349760,14.80122225,.00019804,86.6458,21.0124,72.9001,287.2437,0,U,56729,999,16790,.96280255E-4,.756E-5,0
IRIDIUM 179,2023-068W,2026-06-27T20:27:23.995584,14.80055041,.00024368,86.6770,29.9134,88.1788,271.9712,0,U,56730,999,16794,.67517958E-4,.537E-5,0
