IRIDIUM 154             
1 43574U 18061F   26178.90618594  .00000067  00000+0  16867-4 0  9999
2 43574  86.3952  52.3245 0002180  89.0729 271.0717 14.34217813414946
IRIDIUM 163             
1 43575U 18061G   26178.88715845  .00000103  00000+0  29625-4 0  9991
2 43575  86.3951  52.2475 0002206  83.7526 276.3921 14.34217935414912
IRIDIUM 156             
1 43576U 18061H   26178.93156056  .00000229  00000+0  74558-4 0  9995
2 43576  86.3952  52.2362 0002018  86.0513 274.0914 14.34219221414919
IRIDIUM 164             
1 43577U 18061J   26178.91252861  .00000058  00000+0  13596-4 0  9990
2 43577  86.3953  52.2847 0002226  90.0230 270.1221 14.34217923414950
IRIDIUM 159             
1 43578U 18061K   26178.88081609  .00000039  00000+0  67320-5 0  9991
2 43578  86.3950  52.2345 0002231  84.1564 275.9886 14.34217626414917
IRIDIUM 180             
1 43922U 19002A   26178.88031190  .00000038  00000+0  66433-5 0  9993
2 43922  86.3974 349.1265 0002237  89.3206 270.8247 14.34217698390525
IRIDIUM 176             
1 43923U 19002B   26178.89784953  .00000744  00000+0  11423-3 0  9998
2 43923  86.6094 349.0610 0002411  88.5777 271.5716 14.72227737400824
IRIDIUM 168             
1 43924U 19002C   26178.94373340  .00000099  00000+0  28231-4 0  9998
2 43924  86.3976 349.1774 0002233  90.3580 269.7872 14.34216907390519
IRIDIUM 173             
1 43925U 19002D   26178.86128391  .00000042  00000+0  79815-5 0  9997
2 43925  86.3973 349.1004 0002156  88.8493 271.2950 14.34217872390485
IRIDIUM 169             
1 43926U 19002E   26178.82471895  .00000255  00000+0  76905-4 0  9996
2 43926  86.4219  20.7450 0001661  83.7990 276.3398 14.38607982391755
IRIDIUM 172             
1 43927U 19002F   26178.92470908  .00000017  00000+0 -98986-6 0  9994
2 43927  86.3971 349.0819 0002125  89.5188 270.6251 14.34216913390508
IRIDIUM 175             
1 43928U 19002G   26178.81168884  .00000304  00000+0  83909-4 0  9995
2 43928  86.4518 286.0798 0003835 151.5588 208.5823 14.43618331400514
IRIDIUM 171             
1 43929U 19002H   26178.83591327  .00000011  00000+0 -30004-5 0  9995
2 43929  86.3981 349.4265 0001991  94.0218 266.1205 14.34217551390480
IRIDIUM 170             
1 43930U 19002J   26178.90402611  .00000738  00000+0  11327-3 0  9992
2 43930  86.6094 349.0608 0002478  85.7995 274.3505 14.72228260400833
IRIDIUM 167             
1 43931U 19002K   26178.89933915 -.00000006  00000+0 -93057-5 0  9999
2 43931  86.3972 349.1151 0001889  97.6971 262.4439 14.34217401390498
IRIDIUM 181             
1 56726U 23068S   26178.92184193  .00000282  00000+0  77908-4 0  9992
2 56726  86.4489  52.3028 0002435  87.3078 272.8401 14.43311581163986
IRIDIUM 177             
1 56727U 23068T   26178.86865460  .00000734  00000+0  93551-4 0  9993
2 56727  86.1971 323.7179 0002340  90.3326 269.8163 14.80036262167949
IRIDIUM 174             
1 56728U 23068U   26178.89167987  .00000778  00000+0  11949-3 0  9994
2 56728  86.6102 349.2143 0002370  80.4714 279.6771 14.72235929167596
IRIDIUM 178             
1 56729U 23068V   26178.58716840  .00000756  00000+0  96280-4 0  9997
2 56729  86.6458  21.0124 0001980  72.9001 287.2437 14.80122225167908
IRIDIUM 179             
1 56730U 23068W   26178.85236106  .00000537  00000+0  67518-4 0  9990
2 56730  86.6770  29.9134 0002436  88.1788 271.9712 14.80055041167944
